{
  "type": "FeatureCollection",
  "features": [
    {
      "type": "Feature",
      "properties": {
        "norad_id": 64202,
        "name": "GPS BIII-8  (PRN 21)",
        "group": "gnss",
        "lat": -50.868395344372054,
        "lon": -20.92492273967244,
        "alt_km": 20173.63457065665,
        "timestamp": "2025-12-27T11:23:20.141841+00:00",
        "meta_object_name": "GPS BIII-8  (PRN 21)",
        "meta_object_id": "2025-116A",
        "meta_epoch": "2025-12-26T01:49:27.319296",
        "meta_mean_motion": 2.00557298,
        "meta_eccentricity": 0.00059923,
        "meta_inclination": 55.1151,
        "meta_ra_of_asc_node": 38.103,
        "meta_arg_of_pericenter": 311.0999,
        "meta_mean_anomaly": 48.1681,
        "meta_ephemeris_type": 0,
        "meta_classification_type": "U",
        "meta_norad_cat_id": 64202,
        "meta_element_set_no": 999,
        "meta_rev_at_epoch": 439,
        "meta_bstar": 0,
        "meta_mean_motion_dot": -5.1e-07,
        "meta_mean_motion_ddot": 0,
        "tle_line1": "1 64202U 25116A   25360.07601064 -.00000051  00000+0  00000+0 0  9994",
        "tle_line2": "2 64202  55.1151  38.1030 0005992 311.0999  48.1681  2.00557298  4398"
      },
      "geometry": {
        "type": "Point",
        "coordinates": [
          -20.92492273967244,
          -50.868395344372054
        ]
      }
    },
    {
      "type": "Feature",
      "properties": {
        "norad_id": 65590,
        "name": "COSMOS 2596 (708K)",
        "group": "gnss",
        "lat": -1.3855792630194068,
        "lon": 141.604090723681,
        "alt_km": 19151.919866876673,
        "timestamp": "2025-12-27T11:23:20.141852+00:00",
        "meta_object_name": "COSMOS 2596 (708K)",
        "meta_object_id": "2025-206B",
        "meta_epoch": "2025-12-26T12:49:29.791776",
        "meta_mean_motion": 2.13100157,
        "meta_eccentricity": 0.0014063,
        "meta_inclination": 64.7367,
        "meta_ra_of_asc_node": 320.9961,
        "meta_arg_of_pericenter": 307.6587,
        "meta_mean_anomaly": 232.6923,
        "meta_ephemeris_type": 0,
        "meta_classification_type": "U",
        "meta_norad_cat_id": 65590,
        "meta_element_set_no": 999,
        "meta_rev_at_epoch": 223,
        "meta_bstar": 0,
        "meta_mean_motion_dot": -3.6e-07,
        "meta_mean_motion_ddot": 0,
        "tle_line1": "1 65590U 25206B   25360.53437259 -.00000036  00000+0  00000+0 0  9992",
        "tle_line2": "2 65590  64.7367 320.9961 0014063 307.6587 232.6923  2.13100157  2234"
      },
      "geometry": {
        "type": "Point",
        "coordinates": [
          141.604090723681,
          -1.3855792630194068
        ]
      }
    },
    {
      "type": "Feature",
      "properties": {
        "norad_id": 67160,
        "name": "GALILEO A",
        "group": "gnss",
        "lat": 36.220742871021145,
        "lon": 138.7824927197199,
        "alt_km": 22963.76088572128,
        "timestamp": "2025-12-27T11:23:20.141866+00:00",
        "meta_object_name": "GALILEO A",
        "meta_object_id": "2025-302A",
        "meta_epoch": "2025-12-18T03:30:19.486368",
        "meta_mean_motion": 1.72906186,
        "meta_eccentricity": 0.00084238,
        "meta_inclination": 54.2406,
        "meta_ra_of_asc_node": 107.2544,
        "meta_arg_of_pericenter": 237.6458,
        "meta_mean_anomaly": 122.2317,
        "meta_ephemeris_type": 0,
        "meta_classification_type": "U",
        "meta_norad_cat_id": 67160,
        "meta_element_set_no": 999,
        "meta_rev_at_epoch": 2,
        "meta_bstar": 0,
        "meta_mean_motion_dot": -7e-08,
        "meta_mean_motion_ddot": 0,
        "tle_line1": "1 67160U 25302A   25352.14605887 -.00000007  00000+0  00000+0 0  9994",
        "tle_line2": "2 67160  54.2406 107.2544 0008423 237.6458 122.2317  1.72906186    28"
      },
      "geometry": {
        "type": "Point",
        "coordinates": [
          138.7824927197199,
          36.220742871021145
        ]
      }
    },
    {
      "type": "Feature",
      "properties": {
        "norad_id": 67161,
        "name": "GALILEO B",
        "group": "gnss",
        "lat": 37.86799796729479,
        "lon": 140.99130245646273,
        "alt_km": 22944.270353873286,
        "timestamp": "2025-12-27T11:23:20.141877+00:00",
        "meta_object_name": "GALILEO B",
        "meta_object_id": "2025-302B",
        "meta_epoch": "2025-12-26T19:37:10.068960",
        "meta_mean_motion": 1.72972318,
        "meta_eccentricity": 0.00047769,
        "meta_inclination": 54.2304,
        "meta_ra_of_asc_node": 106.9693,
        "meta_arg_of_pericenter": 256.4913,
        "meta_mean_anomaly": 103.4489,
        "meta_ephemeris_type": 0,
        "meta_classification_type": "U",
        "meta_norad_cat_id": 67161,
        "meta_element_set_no": 999,
        "meta_rev_at_epoch": 18,
        "meta_bstar": 0,
        "meta_mean_motion_dot": 1.6e-07,
        "meta_mean_motion_ddot": 0,
        "tle_line1": "1 67161U 25302B   25360.81747765  .00000016  00000+0  00000+0 0  9999",
        "tle_line2": "2 67161  54.2304 106.9693 0004776 256.4913 103.4489  1.72972318   187"
      },
      "geometry": {
        "type": "Point",
        "coordinates": [
          140.99130245646273,
          37.86799796729479
        ]
      }
    }
  ]
}